STARLINK-35862          
1 66628U 25271M   26034.12201215  .00023147  00000+0  79126-3 0  9998
2 66628  53.1603 300.5401 0000996 106.1491 253.9620 15.30197566 12279
STARLINK-35949          
1 66630U 25271P   26033.19072260  .00026306  00000+0  89704-3 0  9996
2 66630  53.1593 304.6805 0001353  91.6783 268.4373 15.30203506 12136
STARLINK-35965          
1 66631U 25271Q   26034.16094288  .00035687  00000+0  12110-2 0  9997
2 66631  53.1578 300.0721 0000848   7.6290 352.4723 15.30208064 12288
STARLINK-35973          
1 66632U 25271R   26034.25002315  .00037947  00000+0  12879-2 0  9991
2 66632  53.1583 299.9035 0001294  88.6286 280.2952 15.30172368  5897
STARLINK-35948          
1 66633U 25271S   26034.25002315  .00036501  00000+0  12394-2 0  9999
2 66633  53.1578 299.8685 0000908  84.4393 301.9351 15.30176226  5897
STARLINK-35967          
1 66634U 25271T   26034.25002315  .00040531  00000+0  13745-2 0  9999
2 66634  53.1567 299.7762 0001154  84.2862 348.6304 15.30167666  5898
STARLINK-35955          
1 66635U 25271U   26033.73749240  .00018891  00000+0  64717-3 0  9997
2 66635  53.1601 302.4066 0001496  69.7937 290.3225 15.30257377 12215
STARLINK-35968          
1 66636U 25271V   26034.13572977  .00044143  00000+0  14928-2 0  9991
2 66636  53.1601 300.6251 0000747 133.5638 226.5425 15.30220857 12270
STARLINK-35953          
1 66637U 25271W   26034.11990644  .00042455  00000+0  14376-2 0  9996
2 66637  53.1595 300.5277 0001481  63.1992 296.9160 15.30194013 12278
STARLINK-35972          
1 66638U 25271X   26034.14207091  .00038110  00000+0  12911-2 0  9993
2 66638  53.1564 300.6613 0002798  90.6891 269.4430 15.30228600 12270
STARLINK-35908          
1 66639U 25271Y   26034.12518112  .00040527  00000+0  13718-2 0  9992
2 66639  53.1593 300.5599 0001056  81.7503 278.3617 15.30229067 12276
STARLINK-35921          
1 66640U 25271Z   26034.25002315  .00037948  00000+0  12878-2 0  9990
2 66640  53.1577 299.6013 0001425  80.4922  79.6604 15.30174819  5791
STARLINK-35923          
1 66641U 25271AA  26033.23609654  .00046301  00000+0  15643-2 0  9993
2 66641  53.1576 304.9598 0001237  84.4248 275.6893 15.30227672 12135
STARLINK-35926          
1 66642U 25271AB  26033.68168846  .00038364  00000+0  12992-2 0  9990
2 66642  53.1604 302.7661 0001888  58.8880 301.2306 15.30238573 12164
STARLINK-35918          
1 66643U 25271AC  26034.10934749  .00030037  00000+0  10220-2 0  9993
2 66643  53.1590 300.4574 0000652 135.2014 224.9040 15.30206388 12271
STARLINK-35938          
1 66644U 25271AD  26033.16761857  .00032479  00000+0  11037-2 0  9996
2 66644  53.1587 305.2440 0001379  92.2401 267.8758 15.30205898 12123
