[{"OBJECT_NAME":"STARLINK-35862","OBJECT_ID":"2025-271M","EPOCH":"2026-02-03T02:55:41.849760","MEAN_MOTION":15.30197566,"ECCENTRICITY":9.965e-5,"INCLINATION":53.1603,"RA_OF_ASC_NODE":300.5401,"ARG_OF_PERICENTER":106.1491,"MEAN_ANOMALY":253.962,"EPHEMERIS_TYPE":0,"CLASSIFICATION_TYPE":"U","NORAD_CAT_ID":66628,"ELEMENT_SET_NO":999,"REV_AT_EPOCH":1227,"BSTAR":0.00079126409,"MEAN_MOTION_DOT":0.00023147,"MEAN_MOTION_DDOT":0},{"OBJECT_NAME":"STARLINK-35949","OBJECT_ID":"2025-271P","EPOCH":"2026-02-02T04:34:38.432640","MEAN_MOTION":15.30203506,"ECCENTRICITY":0.0001353,"INCLINATION":53.1593,"RA_OF_ASC_NODE":304.6805,"ARG_OF_PERICENTER":91.6783,"MEAN_ANOMALY":268.4373,"EPHEMERIS_TYPE":0,"CLASSIFICATION_TYPE":"U","NORAD_CAT_ID":66630,"ELEMENT_SET_NO":999,"REV_AT_EPOCH":1213,"BSTAR":0.00089704,"MEAN_MOTION_DOT":0.00026306,"MEAN_MOTION_DDOT":0},{"OBJECT_NAME":"STARLINK-35965","OBJECT_ID":"2025-271Q","EPOCH":"2026-02-03T03:51:45.464832","MEAN_MOTION":15.30208064,"ECCENTRICITY":8.481e-5,"INCLINATION":53.1578,"RA_OF_ASC_NODE":300.0721,"ARG_OF_PERICENTER":7.629,"MEAN_ANOMALY":352.4723,"EPHEMERIS_TYPE":0,"CLASSIFICATION_TYPE":"U","NORAD_CAT_ID":66631,"ELEMENT_SET_NO":999,"REV_AT_EPOCH":1228,"BSTAR":0.0012109658,"MEAN_MOTION_DOT":0.00035687,"MEAN_MOTION_DDOT":0},{"OBJECT_NAME":"STARLINK-35973","OBJECT_ID":"2025-271R","EPOCH":"2026-02-03T06:00:02.000160","MEAN_MOTION":15.30172368,"ECCENTRICITY":0.00012945,"INCLINATION":53.1583,"RA_OF_ASC_NODE":299.9035,"ARG_OF_PERICENTER":88.6286,"MEAN_ANOMALY":280.2952,"EPHEMERIS_TYPE":0,"CLASSIFICATION_TYPE":"U","NORAD_CAT_ID":66632,"ELEMENT_SET_NO":999,"REV_AT_EPOCH":589,"BSTAR":0.0012878995,"MEAN_MOTION_DOT":0.00037947,"MEAN_MOTION_DDOT":0},{"OBJECT_NAME":"STARLINK-35948","OBJECT_ID":"2025-271S","EPOCH":"2026-02-03T06:00:02.000160","MEAN_MOTION":15.30176226,"ECCENTRICITY":9.088e-5,"INCLINATION":53.1578,"RA_OF_ASC_NODE":299.8685,"ARG_OF_PERICENTER":84.4393,"MEAN_ANOMALY":301.9351,"EPHEMERIS_TYPE":0,"CLASSIFICATION_TYPE":"U","NORAD_CAT_ID":66633,"ELEMENT_SET_NO":999,"REV_AT_EPOCH":589,"BSTAR":0.0012393914,"MEAN_MOTION_DOT":0.00036501,"MEAN_MOTION_DDOT":0},{"OBJECT_NAME":"STARLINK-35967","OBJECT_ID":"2025-271T","EPOCH":"2026-02-03T06:00:02.000160","MEAN_MOTION":15.30167666,"ECCENTRICITY":0.00011545,"INCLINATION":53.1567,"RA_OF_ASC_NODE":299.7762,"ARG_OF_PERICENTER":84.2862,"MEAN_ANOMALY":348.6304,"EPHEMERIS_TYPE":0,"CLASSIFICATION_TYPE":"U","NORAD_CAT_ID":66634,"ELEMENT_SET_NO":999,"REV_AT_EPOCH":589,"BSTAR":0.0013745057,"MEAN_MOTION_DOT":0.00040531,"MEAN_MOTION_DDOT":0},{"OBJECT_NAME":"STARLINK-35955","OBJECT_ID":"2025-271U","EPOCH":"2026-02-02T17:41:59.343360","MEAN_MOTION":15.30257377,"ECCENTRICITY":0.00014961,"INCLINATION":53.1601,"RA_OF_ASC_NODE":302.4066,"ARG_OF_PERICENTER":69.7937,"MEAN_ANOMALY":290.3225,"EPHEMERIS_TYPE":0,"CLASSIFICATION_TYPE":"U","NORAD_CAT_ID":66635,"ELEMENT_SET_NO":999,"REV_AT_EPOCH":1221,"BSTAR":0.00064716588,"MEAN_MOTION_DOT":0.00018891,"MEAN_MOTION_DDOT":0},{"OBJECT_NAME":"STARLINK-35968","OBJECT_ID":"2025-271V","EPOCH":"2026-02-03T03:15:27.052128","MEAN_MOTION":15.30220857,"ECCENTRICITY":7.473e-5,"INCLINATION":53.1601,"RA_OF_ASC_NODE":300.6251,"ARG_OF_PERICENTER":133.5638,"MEAN_ANOMALY":226.5425,"EPHEMERIS_TYPE":0,"CLASSIFICATION_TYPE":"U","NORAD_CAT_ID":66636,"ELEMENT_SET_NO":999,"REV_AT_EPOCH":1227,"BSTAR":0.0014927537,"MEAN_MOTION_DOT":0.00044143,"MEAN_MOTION_DDOT":0},{"OBJECT_NAME":"STARLINK-35953","OBJECT_ID":"2025-271W","EPOCH":"2026-02-03T02:52:39.916416","MEAN_MOTION":15.30194013,"ECCENTRICITY":0.00014812,"INCLINATION":53.1595,"RA_OF_ASC_NODE":300.5277,"ARG_OF_PERICENTER":63.1992,"MEAN_ANOMALY":296.916,"EPHEMERIS_TYPE":0,"CLASSIFICATION_TYPE":"U","NORAD_CAT_ID":66637,"ELEMENT_SET_NO":999,"REV_AT_EPOCH":1227,"BSTAR":0.0014376386,"MEAN_MOTION_DOT":0.00042455,"MEAN_MOTION_DDOT":0},{"OBJECT_NAME":"STARLINK-35972","OBJECT_ID":"2025-271X","EPOCH":"2026-02-03T03:24:34.926624","MEAN_MOTION":15.302286,"ECCENTRICITY":0.00027984,"INCLINATION":53.1564,"RA_OF_ASC_NODE":300.6613,"ARG_OF_PERICENTER":90.6891,"MEAN_ANOMALY":269.443,"EPHEMERIS_TYPE":0,"CLASSIFICATION_TYPE":"U","NORAD_CAT_ID":66638,"ELEMENT_SET_NO":999,"REV_AT_EPOCH":1227,"BSTAR":0.0012910513,"MEAN_MOTION_DOT":0.0003811,"MEAN_MOTION_DDOT":0},{"OBJECT_NAME":"STARLINK-35908","OBJECT_ID":"2025-271Y","EPOCH":"2026-02-03T03:00:15.648768","MEAN_MOTION":15.30229067,"ECCENTRICITY":0.00010562,"INCLINATION":53.1593,"RA_OF_ASC_NODE":300.5599,"ARG_OF_PERICENTER":81.7503,"MEAN_ANOMALY":278.3617,"EPHEMERIS_TYPE":0,"CLASSIFICATION_TYPE":"U","NORAD_CAT_ID":66639,"ELEMENT_SET_NO":999,"REV_AT_EPOCH":1227,"BSTAR":0.0013717742,"MEAN_MOTION_DOT":0.00040527,"MEAN_MOTION_DDOT":0},{"OBJECT_NAME":"STARLINK-35921","OBJECT_ID":"2025-271Z","EPOCH":"2026-02-03T06:00:02.000160","MEAN_MOTION":15.30174819,"ECCENTRICITY":0.00014258,"INCLINATION":53.1577,"RA_OF_ASC_NODE":299.6013,"ARG_OF_PERICENTER":80.4922,"MEAN_ANOMALY":79.6604,"EPHEMERIS_TYPE":0,"CLASSIFICATION_TYPE":"U","NORAD_CAT_ID":66640,"ELEMENT_SET_NO":999,"REV_AT_EPOCH":579,"BSTAR":0.0012878215,"MEAN_MOTION_DOT":0.00037948,"MEAN_MOTION_DDOT":0},{"OBJECT_NAME":"STARLINK-35923","OBJECT_ID":"2025-271AA","EPOCH":"2026-02-02T05:39:58.741056","MEAN_MOTION":15.30227672,"ECCENTRICITY":0.00012375,"INCLINATION":53.1576,"RA_OF_ASC_NODE":304.9598,"ARG_OF_PERICENTER":84.4248,"MEAN_ANOMALY":275.6893,"EPHEMERIS_TYPE":0,"CLASSIFICATION_TYPE":"U","NORAD_CAT_ID":66641,"ELEMENT_SET_NO":999,"REV_AT_EPOCH":1213,"BSTAR":0.0015643487,"MEAN_MOTION_DOT":0.00046301,"MEAN_MOTION_DDOT":0},{"OBJECT_NAME":"STARLINK-35926","OBJECT_ID":"2025-271AB","EPOCH":"2026-02-02T16:21:37.882944","MEAN_MOTION":15.30238573,"ECCENTRICITY":0.00018886,"INCLINATION":53.1604,"RA_OF_ASC_NODE":302.7661,"ARG_OF_PERICENTER":58.888,"MEAN_ANOMALY":301.2306,"EPHEMERIS_TYPE":0,"CLASSIFICATION_TYPE":"U","NORAD_CAT_ID":66642,"ELEMENT_SET_NO":999,"REV_AT_EPOCH":1216,"BSTAR":0.001299173,"MEAN_MOTION_DOT":0.00038364,"MEAN_MOTION_DDOT":0},{"OBJECT_NAME":"STARLINK-35918","OBJECT_ID":"2025-271AC","EPOCH":"2026-02-03T02:37:27.623136","MEAN_MOTION":15.30206388,"ECCENTRICITY":6.527e-5,"INCLINATION":53.159,"RA_OF_ASC_NODE":300.4574,"ARG_OF_PERICENTER":135.2014,"MEAN_ANOMALY":224.904,"EPHEMERIS_TYPE":0,"CLASSIFICATION_TYPE":"U","NORAD_CAT_ID":66643,"ELEMENT_SET_NO":999,"REV_AT_EPOCH":1227,"BSTAR":0.0010219776,"MEAN_MOTION_DOT":0.00030037,"MEAN_MOTION_DDOT":0},{"OBJECT_NAME":"STARLINK-35938","OBJECT_ID":"2025-271AD","EPOCH":"2026-02-02T04:01:22.244448","MEAN_MOTION":15.30205898,"ECCENTRICITY":0.00013792,"INCLINATION":53.1587,"RA_OF_ASC_NODE":305.244,"ARG_OF_PERICENTER":92.2401,"MEAN_ANOMALY":267.8758,"EPHEMERIS_TYPE":0,"CLASSIFICATION_TYPE":"U","NORAD_CAT_ID":66644,"ELEMENT_SET_NO":999,"REV_AT_EPOCH":1212,"BSTAR":0.001103742,"MEAN_MOTION_DOT":0.00032479,"MEAN_MOTION_DDOT":0}]
